CCSDS_OMM_VERS = 2.0
CREATION_DATE  = 
ORIGINATOR     = 

OBJECT_NAME    = SL-3 R/B
OBJECT_ID      = 1988-032B
CENTER_NAME    = EARTH
REF_FRAME      = TEME
TIME_SYSTEM    = UTC
MEAN_ELEMENT_THEORY = SGP/SGP4

EPOCH          = 2026-03-12T13:31:21.565920
MEAN_MOTION    = 15.19947149
ECCENTRICITY   = .0024655
INCLINATION    = 97.5196
RA_OF_ASC_NODE = 54.8043
ARG_OF_PERICENTER = 220.8812
MEAN_ANOMALY   = 139.0574

EPHEMERIS_TYPE = 0
CLASSIFICATION_TYPE = U
NORAD_CAT_ID   = 19046
ELEMENT_SET_NO = 999
REV_AT_EPOCH   = 5254
BSTAR          = .29737618E-3
MEAN_MOTION_DOT = .6376E-4
MEAN_MOTION_DDOT = 0

CCSDS_OMM_VERS = 2.0
CREATION_DATE  = 
ORIGINATOR     = 

OBJECT_NAME    = SL-16 R/B
OBJECT_ID      = 1988-039B
CENTER_NAME    = EARTH
REF_FRAME      = TEME
TIME_SYSTEM    = UTC
MEAN_ELEMENT_THEORY = SGP/SGP4

EPOCH          = 2026-03-12T09:01:29.665920
MEAN_MOTION    = 14.19615873
ECCENTRICITY   = .00229363
INCLINATION    = 71.0137
RA_OF_ASC_NODE = 62.8667
ARG_OF_PERICENTER = 330.4756
MEAN_ANOMALY   = 29.5073

EPHEMERIS_TYPE = 0
CLASSIFICATION_TYPE = U
NORAD_CAT_ID   = 19120
ELEMENT_SET_NO = 999
REV_AT_EPOCH   = 95876
BSTAR          = .78136981E-4
MEAN_MOTION_DOT = .117E-5
MEAN_MOTION_DDOT = 0

CCSDS_OMM_VERS = 2.0
CREATION_DATE  = 
ORIGINATOR     = 

OBJECT_NAME    = COSMOS 1953
OBJECT_ID      = 1988-050A
CENTER_NAME    = EARTH
REF_FRAME      = TEME
TIME_SYSTEM    = UTC
MEAN_ELEMENT_THEORY = SGP/SGP4

EPOCH          = 2026-03-12T07:25:52.590144
MEAN_MOTION    = 15.28576123
ECCENTRICITY   = .00125425
INCLINATION    = 82.5102
RA_OF_ASC_NODE = 155.6127
ARG_OF_PERICENTER = 114.4018
MEAN_ANOMALY   = 245.8532

EPHEMERIS_TYPE = 0
CLASSIFICATION_TYPE = U
NORAD_CAT_ID   = 19210
ELEMENT_SET_NO = 999
REV_AT_EPOCH   = 3818
BSTAR          = .3162974E-3
MEAN_MOTION_DOT = .8844E-4
MEAN_MOTION_DDOT = 0

CCSDS_OMM_VERS = 2.0
CREATION_DATE  = 
ORIGINATOR     = 

OBJECT_NAME    = SL-8 R/B
OBJECT_ID      = 1988-053B
CENTER_NAME    = EARTH
REF_FRAME      = TEME
TIME_SYSTEM    = UTC
MEAN_ELEMENT_THEORY = SGP/SGP4

EPOCH          = 2026-03-12T14:05:04.818912
MEAN_MOTION    = 14.38917770
ECCENTRICITY   = .00214732
INCLINATION    = 74.0456
RA_OF_ASC_NODE = 107.1257
ARG_OF_PERICENTER = 286.0145
MEAN_ANOMALY   = 188.5505

EPHEMERIS_TYPE = 0
CLASSIFICATION_TYPE = U
NORAD_CAT_ID   = 19257
ELEMENT_SET_NO = 999
REV_AT_EPOCH   = 97701
BSTAR          = .10685068E-3
MEAN_MOTION_DOT = .304E-5
MEAN_MOTION_DDOT = 0

CCSDS_OMM_VERS = 2.0
CREATION_DATE  = 
ORIGINATOR     = 

OBJECT_NAME    = COSMOS 1975
OBJECT_ID      = 1988-093A
CENTER_NAME    = EARTH
REF_FRAME      = TEME
TIME_SYSTEM    = UTC
MEAN_ELEMENT_THEORY = SGP/SGP4

EPOCH          = 2026-03-12T12:58:27.227424
MEAN_MOTION    = 15.28113499
ECCENTRICITY   = .00124361
INCLINATION    = 82.5183
RA_OF_ASC_NODE = 114.8233
ARG_OF_PERICENTER = 153.7513
MEAN_ANOMALY   = 206.4359

EPHEMERIS_TYPE = 0
CLASSIFICATION_TYPE = U
NORAD_CAT_ID   = 19573
ELEMENT_SET_NO = 999
REV_AT_EPOCH   = 1984
BSTAR          = .26182167E-3
MEAN_MOTION_DOT = .7223E-4
MEAN_MOTION_DDOT = 0

CCSDS_OMM_VERS = 2.0
CREATION_DATE  = 
ORIGINATOR     = 

OBJECT_NAME    = SL-14 R/B
OBJECT_ID      = 1988-093B
CENTER_NAME    = EARTH
REF_FRAME      = TEME
TIME_SYSTEM    = UTC
MEAN_ELEMENT_THEORY = SGP/SGP4

EPOCH          = 2026-03-12T10:26:27.206304
MEAN_MOTION    = 14.85660630
ECCENTRICITY   = .00215766
INCLINATION    = 82.5309
RA_OF_ASC_NODE = 39.4663
ARG_OF_PERICENTER = 32.8451
MEAN_ANOMALY   = 88.9894

EPHEMERIS_TYPE = 0
CLASSIFICATION_TYPE = U
NORAD_CAT_ID   = 19574
ELEMENT_SET_NO = 999
REV_AT_EPOCH   = 142
BSTAR          = .83340204E-4
MEAN_MOTION_DOT = .749E-5
MEAN_MOTION_DDOT = 0

CCSDS_OMM_VERS = 2.0
CREATION_DATE  = 
ORIGINATOR     = 

OBJECT_NAME    = SL-16 R/B
OBJECT_ID      = 1988-102B
CENTER_NAME    = EARTH
REF_FRAME      = TEME
TIME_SYSTEM    = UTC
MEAN_ELEMENT_THEORY = SGP/SGP4

EPOCH          = 2026-03-12T14:08:14.343360
MEAN_MOTION    = 14.16154064
ECCENTRICITY   = .00141583
INCLINATION    = 70.9999
RA_OF_ASC_NODE = 145.3973
ARG_OF_PERICENTER = 357.0827
MEAN_ANOMALY   = 3.0211

EPHEMERIS_TYPE = 0
CLASSIFICATION_TYPE = U
NORAD_CAT_ID   = 19650
ELEMENT_SET_NO = 999
REV_AT_EPOCH   = 92730
BSTAR          = .16592484E-3
MEAN_MOTION_DOT = .281E-5
MEAN_MOTION_DDOT = 0

CCSDS_OMM_VERS = 2.0
CREATION_DATE  = 
ORIGINATOR     = 

OBJECT_NAME    = INTERCOSMOS 24
OBJECT_ID      = 1989-080A
CENTER_NAME    = EARTH
REF_FRAME      = TEME
TIME_SYSTEM    = UTC
MEAN_ELEMENT_THEORY = SGP/SGP4

EPOCH          = 2026-03-12T12:04:31.977696
MEAN_MOTION    = 12.59562669
ECCENTRICITY   = .11866812
INCLINATION    = 82.6022
RA_OF_ASC_NODE = 102.5718
ARG_OF_PERICENTER = 286.2839
MEAN_ANOMALY   = 61.1134

EPHEMERIS_TYPE = 0
CLASSIFICATION_TYPE = U
NORAD_CAT_ID   = 20261
ELEMENT_SET_NO = 999
REV_AT_EPOCH   = 66715
BSTAR          = .24897149E-3
MEAN_MOTION_DOT = .836E-5
MEAN_MOTION_DDOT = 0

CCSDS_OMM_VERS = 2.0
CREATION_DATE  = 
ORIGINATOR     = 

OBJECT_NAME    = SL-14 R/B
OBJECT_ID      = 1989-080C
CENTER_NAME    = EARTH
REF_FRAME      = TEME
TIME_SYSTEM    = UTC
MEAN_ELEMENT_THEORY = SGP/SGP4

EPOCH          = 2026-03-12T08:33:23.867136
MEAN_MOTION    = 12.50497477
ECCENTRICITY   = .12306504
INCLINATION    = 82.5974
RA_OF_ASC_NODE = 171.4749
ARG_OF_PERICENTER = 178.6559
MEAN_ANOMALY   = 181.8403

EPHEMERIS_TYPE = 0
CLASSIFICATION_TYPE = U
NORAD_CAT_ID   = 20262
ELEMENT_SET_NO = 999
REV_AT_EPOCH   = 66048
BSTAR          = .19296651E-3
MEAN_MOTION_DOT = .658E-5
MEAN_MOTION_DDOT = 0

CCSDS_OMM_VERS = 2.0
CREATION_DATE  = 
ORIGINATOR     = 

OBJECT_NAME    = DELTA 1 R/B
OBJECT_ID      = 1989-089B
CENTER_NAME    = EARTH
REF_FRAME      = TEME
TIME_SYSTEM    = UTC
MEAN_ELEMENT_THEORY = SGP/SGP4

EPOCH          = 2026-03-12T14:04:59.729088
MEAN_MOTION    = 14.50665673
ECCENTRICITY   = .00705811
INCLINATION    = 97.0704
RA_OF_ASC_NODE = 278.5648
ARG_OF_PERICENTER = 112.9989
MEAN_ANOMALY   = 247.8674

EPHEMERIS_TYPE = 0
CLASSIFICATION_TYPE = U
NORAD_CAT_ID   = 20323
ELEMENT_SET_NO = 999
REV_AT_EPOCH   = 89615
BSTAR          = .11020172E-3
MEAN_MOTION_DOT = .412E-5
MEAN_MOTION_DDOT = 0

CCSDS_OMM_VERS = 2.0
CREATION_DATE  = 
ORIGINATOR     = 

OBJECT_NAME    = ARIANE 40 R/B
OBJECT_ID      = 1990-005H
CENTER_NAME    = EARTH
REF_FRAME      = TEME
TIME_SYSTEM    = UTC
MEAN_ELEMENT_THEORY = SGP/SGP4

EPOCH          = 2026-03-12T14:14:10.173120
MEAN_MOTION    = 14.39872729
ECCENTRICITY   = .00100254
INCLINATION    = 98.3078
RA_OF_ASC_NODE = 132.1681
ARG_OF_PERICENTER = 189.5582
MEAN_ANOMALY   = 170.5417

EPHEMERIS_TYPE = 0
CLASSIFICATION_TYPE = U
NORAD_CAT_ID   = 20443
ELEMENT_SET_NO = 999
REV_AT_EPOCH   = 89322
BSTAR          = .11656815E-3
MEAN_MOTION_DOT = .324E-5
MEAN_MOTION_DDOT = 0

CCSDS_OMM_VERS = 2.0
CREATION_DATE  = 
ORIGINATOR     = 

OBJECT_NAME    = DELTA 2 R/B(1)
OBJECT_ID      = 1990-008B
CENTER_NAME    = EARTH
REF_FRAME      = TEME
TIME_SYSTEM    = UTC
MEAN_ELEMENT_THEORY = SGP/SGP4

EPOCH          = 2026-03-12T13:58:30.047808
MEAN_MOTION    = 15.56385855
ECCENTRICITY   = .00844684
INCLINATION    = 35.6032
RA_OF_ASC_NODE = 155.8638
ARG_OF_PERICENTER = 285.3867
MEAN_ANOMALY   = 73.7550

EPHEMERIS_TYPE = 0
CLASSIFICATION_TYPE = U
NORAD_CAT_ID   = 20453
ELEMENT_SET_NO = 999
REV_AT_EPOCH   = 92658
BSTAR          = .7930816E-3
MEAN_MOTION_DOT = .68711E-3
MEAN_MOTION_DDOT = 0

