SL-3 R/B                
1 19046U 88032B   26071.56344405  .00006376  00000+0  29738-3 0  9991
2 19046  97.5196  54.8043 0024655 220.8812 139.0574 15.19947149 52543
SL-16 R/B               
1 19120U 88039B   26071.37603780  .00000117  00000+0  78137-4 0  9999
2 19120  71.0137  62.8667 0022936 330.4756  29.5073 14.19615873958765
COSMOS 1953             
1 19210U 88050A   26071.30963646  .00008844  00000+0  31630-3 0  9996
2 19210  82.5102 155.6127 0012542 114.4018 245.8532 15.28576123 38182
SL-8 R/B                
1 19257U 88053B   26071.58686133  .00000304  00000+0  10685-3 0  9993
2 19257  74.0456 107.1257 0021473 286.0145 188.5505 14.38917770977011
COSMOS 1975             
1 19573U 88093A   26071.54059291  .00007223  00000+0  26182-3 0  9999
2 19573  82.5183 114.8233 0012436 153.7513 206.4359 15.28113499 19841
SL-14 R/B               
1 19574U 88093B   26071.43503711  .00000749  00000+0  83340-4 0  9995
2 19574  82.5309  39.4663 0021576  32.8451  88.9894 14.85660630  1422
SL-16 R/B               
1 19650U 88102B   26071.58905490  .00000281  00000+0  16592-3 0  9992
2 19650  70.9999 145.3973 0014158 357.0827   3.0211 14.16154064927309
INTERCOSMOS 24          
1 20261U 89080A   26071.50314789  .00000836  00000+0  24897-3 0  9998
2 20261  82.6022 102.5718 1186681 286.2839  61.1134 12.59562669667158
SL-14 R/B               
1 20262U 89080C   26071.35652624  .00000658  00000+0  19297-3 0  9995
2 20262  82.5974 171.4749 1230650 178.6559 181.8403 12.50497477660485
DELTA 1 R/B             
1 20323U 89089B   26071.58680242  .00000412  00000+0  11020-3 0  9998
2 20323  97.0704 278.5648 0070581 112.9989 247.8674 14.50665673896159
ARIANE 40 R/B           
1 20443U 90005H   26071.59317330  .00000324  00000+0  11657-3 0  9995
2 20443  98.3078 132.1681 0010025 189.5582 170.5417 14.39872729893229
DELTA 2 R/B(1)          
1 20453U 90008B   26071.58229222  .00068711  00000+0  79308-3 0  9991
2 20453  35.6032 155.8638 0084468 285.3867  73.7550 15.56385855926588
